STARLINK-6363           
1 57375U 23099AZ  26149.35484754  .00000223  00000+0  17611-4 0  9998
2 57375  43.0029 146.3146 0001051 267.9414  92.1317 15.27576461158531
STARLINK-6367           
1 57376U 23099BA  26149.98607546  .00037992  00000+0  13820-2 0  9993
2 57376  43.0004 139.0495 0001493 252.5113 107.5575 15.27603443158670
STARLINK-6358           
1 57377U 23099BB  26150.02316507  .00002315  00000+0  11629-3 0  9992
2 57377  43.0028 145.3036 0001433 277.6440  82.4246 15.20047225158605
STARLINK-6364           
1 57378U 23099BC  26149.94305141  .00000354  00000+0  22396-4 0  9999
2 57378  43.0024 113.5849 0000624 258.7810 101.2971 15.27578073159707
STARLINK-6361           
1 57379U 23099BD  26150.04761022 -.00000080  00000+0  66333-5 0  9994
2 57379  43.0023 138.6517 0001162 268.1629  91.9089 15.27575037158686
STARLINK-6366           
1 57380U 23099BE  26149.94690369  .00000073  00000+0  12168-4 0  9995
2 57380  43.0045 113.5996 0001129 276.9212  83.1511 15.27574497159697
STARLINK-6371           
1 57381U 23099BF  26150.00457022  .00000383  00000+0  23426-4 0  9995
2 57381  43.0027 124.4659 0001069 249.6424 110.4313 15.27575619159589
STARLING 4              
1 57386U 23100A   26150.18572203  .00003572  00000+0  24699-3 0  9996
2 57386  99.5095 163.7236 0006805 162.6953 197.4502 15.06613684157198
STARLING 2              
1 57387U 23100B   26150.18604603  .00005797  00000+0  39698-3 0  9993
2 57387  99.5091 163.7447 0005488 170.6260 189.5064 15.06613343157192
STARLING 1              
1 57388U 23100C   26150.18584838  .00003339  00000+0  23129-3 0  9993
2 57388  99.5128 164.3414 0004879 348.5075  11.6034 15.06615395157199
STARLING 3              
1 57389U 23100D   26150.03026725  .00008341  00000+0  48892-3 0  9996
2 57389  99.5058 166.4001 0005874 157.7128 202.4353 15.12132544157328
LEMUR-2-DEVERILL-M-T    
1 57391U 23100F   26150.03346472  .00033684  00000+0  87804-3 0  9997
2 57391  99.4481 183.5651 0007794 103.8010 256.4096 15.38766357158457
LEO 3                   
1 57392U 23100G   26149.32334721 -.00000039  00000+0  64479-5 0  9996
2 57392  99.5612 273.8222 0018990  66.0200 294.2931 13.68420093143067
TIANMU-1 07             
1 57399U 23101A   26150.17651362  .00008715  00000+0  30655-3 0  9997
2 57399  97.2604 201.2605 0002791 160.6162 199.5185 15.29573771158896
TIANMU-1 08             
1 57400U 23101B   26150.14320722  .00008795  00000+0  30926-3 0  9999
2 57400  97.2592 201.0011 0004335 161.2870 198.8530 15.29578639158886
TIANMU-1 09             
1 57401U 23101C   26150.19236631  .00008558  00000+0  30079-3 0  9996
2 57401  97.2550 200.4743 0003092 171.4008 188.7287 15.29603341158898
TIANMU-1 10             
1 57402U 23101D   26150.15965986  .00008942  00000+0  31441-3 0  9996
2 57402  97.2630 201.4743 0004642 177.0119 183.1150 15.29573027158880
STARLINK-30240          
1 57404U 23102A   26149.01024858  .00001061  00000+0  48103-4 0  9995
2 57404  43.0041 154.9939 0002206 271.0386  89.0212 15.27575538158522
STARLINK-30195          
1 57406U 23102C   26150.07664063  .00001090  00000+0  50303-4 0  9990
2 57406  43.0058 156.0734 0001842 285.2620  74.8027 15.26741541158604
STARLINK-30207          
1 57407U 23102D   26149.99800446 -.00000025  00000+0  86000-5 0  9999
2 57407  43.0011 134.8799 0001227 283.8434  76.2281 15.27573801158851
STARLINK-30205          
1 57408U 23102E   26150.01288410  .00001356  00000+0  58801-4 0  9990
2 57408  43.0016 149.6202 0001413 272.6453  87.4237 15.27582774158678
STARLINK-30222          
1 57409U 23102F   26149.39357845  .00004749  00000+0  18192-3 0  9996
2 57409  43.0025 152.7143 0001266 278.7356  81.3352 15.27592190158587
STARLINK-30172          
1 57410U 23102G   26150.04243941 -.00000354  00000+0 -33596-5 0  9990
2 57410  43.0019 149.8304 0001166 275.8125  84.2593 15.27579413158671
STARLINK-30214          
1 57411U 23102H   26150.04486537  .00000743  00000+0  36530-4 0  9991
2 57411  43.0040 149.0039 0001602 272.8361  87.2307 15.27578431158638
STARLINK-30182          
1 57412U 23102J   26150.05385902  .00001160  00000+0  51673-4 0  9996
2 57412  43.0060 149.0671 0002088 277.8660  82.1955 15.27579837158688
STARLINK-30191          
1 57413U 23102K   26149.87308642 -.00000497  00000+0 -85475-5 0  9993
2 57413  43.0032  88.1674 0000081   3.7150 356.3702 15.27570591159387
STARLINK-30193          
1 57414U 23102L   26150.16668980  .00106744  00000+0  27900-2 0  9998
2 57414  43.0002 148.8183 0000945 275.6177 170.2841 15.37681178  5902
STARLINK-30208          
1 57415U 23102M   26150.05000775  .00001020  00000+0  46592-4 0  9990
2 57415  43.0060 149.0401 0001774 286.3649  73.7008 15.27576037158634
STARLINK-30224          
1 57416U 23102N   26149.07691847  .00000312  00000+0  20881-4 0  9993
2 57416  43.0033 154.6315 0001571 271.8262  88.2410 15.27576884158533
STARLINK-30043          
1 57417U 23102P   26150.05899988  .00000846  00000+0  40262-4 0  9997
2 57417  43.0084 149.1025 0001580 268.2548  91.8123 15.27578537158688
