OBJECT_NAME,OBJECT_ID,EPOCH,MEAN_MOTION,ECCENTRICITY,INCLINATION,RA_OF_ASC_NODE,ARG_OF_PERICENTER,MEAN_ANOMALY,EPHEMERIS_TYPE,CLASSIFICATION_TYPE,NORAD_CAT_ID,ELEMENT_SET_NO,REV_AT_EPOCH,BSTAR,MEAN_MOTION_DOT,MEAN_MOTION_DDOT
STARLINK-6363,2023-099AZ,2026-05-29T08:30:58.827456,15.27576461,.0001051,43.0029,146.3146,267.9414,92.1317,0,U,57375,999,15853,.17610677E-4,.223E-5,0
STARLINK-6367,2023-099BA,2026-05-29T23:39:56.919744,15.27603443,.0001493,43.0004,139.0495,252.5113,107.5575,0,U,57376,999,15867,.13820203E-2,.37992E-3,0
STARLINK-6358,2023-099BB,2026-05-30T00:33:21.462048,15.20047225,.0001433,43.0028,145.3036,277.6440,82.4246,0,U,57377,999,15860,.11629E-3,.2315E-4,0
STARLINK-6364,2023-099BC,2026-05-29T22:37:59.641824,15.27578073,.00006245,43.0024,113.5849,258.7810,101.2971,0,U,57378,999,15970,.22396273E-4,.354E-5,0
STARLINK-6361,2023-099BD,2026-05-30T01:08:33.523008,15.27575037,.0001162,43.0023,138.6517,268.1629,91.9089,0,U,57379,999,15868,.66333E-5,-.8E-6,0
STARLINK-6366,2023-099BE,2026-05-29T22:43:32.478816,15.27574497,.00011294,43.0045,113.5996,276.9212,83.1511,0,U,57380,999,15969,.12167575E-4,.73E-6,0
STARLINK-6371,2023-099BF,2026-05-30T00:06:34.867008,15.27575619,.0001069,43.0027,124.4659,249.6424,110.4313,0,U,57381,999,15958,.23426E-4,.383E-5,0
STARLING 4,2023-100A,2026-05-30T04:27:26.383392,15.06613684,.0006805,99.5095,163.7236,162.6953,197.4502,0,U,57386,999,15719,.24699E-3,.3572E-4,0
STARLING 2,2023-100B,2026-05-30T04:27:54.376992,15.06613343,.0005488,99.5091,163.7447,170.6260,189.5064,0,U,57387,999,15719,.39698E-3,.5797E-4,0
STARLING 1,2023-100C,2026-05-30T04:27:37.300032,15.06615395,.0004879,99.5128,164.3414,348.5075,11.6034,0,U,57388,999,15719,.23129E-3,.3339E-4,0
STARLING 3,2023-100D,2026-05-30T00:43:35.090400,15.12132544,.0005874,99.5058,166.4001,157.7128,202.4353,0,U,57389,999,15732,.48892E-3,.8341E-4,0
LEMUR-2-DEVERILL-M-T,2023-100F,2026-05-30T00:48:11.351808,15.38766357,.0007794,99.4481,183.5651,103.8010,256.4096,0,U,57391,999,15845,.87804E-3,.33684E-3,0
LEO 3,2023-100G,2026-05-29T07:45:37.198944,13.68420093,.00189901,99.5612,273.8222,66.0200,294.2931,0,U,57392,999,14306,.6447908E-5,-.39E-6,0
TIANMU-1 07,2023-101A,2026-05-30T04:14:10.776768,15.29573771,.0002791,97.2604,201.2605,160.6162,199.5185,0,U,57399,999,15889,.30655E-3,.8715E-4,0
TIANMU-1 08,2023-101B,2026-05-30T03:26:13.103808,15.29578639,.0004335,97.2592,201.0011,161.2870,198.8530,0,U,57400,999,15888,.30926E-3,.8795E-4,0
TIANMU-1 09,2023-101C,2026-05-30T04:37:00.449184,15.29603341,.0003092,97.2550,200.4743,171.4008,188.7287,0,U,57401,999,15889,.30079E-3,.8558E-4,0
TIANMU-1 10,2023-101D,2026-05-30T03:49:54.611904,15.29573027,.0004642,97.2630,201.4743,177.0119,183.1150,0,U,57402,999,15888,.31441E-3,.8942E-4,0
STARLINK-30240,2023-102A,2026-05-29T00:14:45.477312,15.27575538,.00022066,43.0041,154.9939,271.0386,89.0212,0,U,57404,999,15852,.48103013E-4,.1061E-4,0
STARLINK-30195,2023-102C,2026-05-30T01:50:21.750432,15.26741541,.0001842,43.0058,156.0734,285.2620,74.8027,0,U,57406,999,15860,.50303E-4,.109E-4,0
STARLINK-30207,2023-102D,2026-05-29T23:57:07.585344,15.27573801,.0001227,43.0011,134.8799,283.8434,76.2281,0,U,57407,999,15885,.86E-5,-.25E-6,0
STARLINK-30205,2023-102E,2026-05-30T00:18:33.186240,15.27582774,.0001413,43.0016,149.6202,272.6453,87.4237,0,U,57408,999,15867,.58801E-4,.1356E-4,0
STARLINK-30222,2023-102F,2026-05-29T09:26:45.178080,15.27592190,.00012662,43.0025,152.7143,278.7356,81.3352,0,U,57409,999,15858,.18192212E-3,.4749E-4,0
STARLINK-30172,2023-102G,2026-05-30T01:01:06.765024,15.27579413,.0001166,43.0019,149.8304,275.8125,84.2593,0,U,57410,999,15867,-.33596E-5,-.354E-5,0
STARLINK-30214,2023-102H,2026-05-30T01:04:36.367968,15.27578431,.0001602,43.0040,149.0039,272.8361,87.2307,0,U,57411,999,15863,.3653E-4,.743E-5,0
STARLINK-30182,2023-102J,2026-05-30T01:17:33.419328,15.27579837,.0002088,43.0060,149.0671,277.8660,82.1955,0,U,57412,999,15868,.51673E-4,.116E-4,0
STARLINK-30191,2023-102K,2026-05-29T20:57:14.666688,15.27570591,.00000817,43.0032,88.1674,3.7150,356.3702,0,U,57413,999,15938,-.8547472E-5,-.497E-5,0
STARLINK-30193,2023-102L,2026-05-30T04:00:01.998720,15.37681178,.0000945,43.0002,148.8183,275.6177,170.2841,0,U,57414,999,590,.279E-2,.106744E-2,0
STARLINK-30208,2023-102M,2026-05-30T01:12:00.669600,15.27576037,.0001774,43.0060,149.0401,286.3649,73.7008,0,U,57415,999,15863,.46592E-4,.102E-4,0
STARLINK-30224,2023-102N,2026-05-29T01:50:45.755808,15.27576884,.00015713,43.0033,154.6315,271.8262,88.2410,0,U,57416,999,15853,.20880971E-4,.312E-5,0
STARLINK-30043,2023-102P,2026-05-30T01:24:57.589632,15.27578537,.000158,43.0084,149.1025,268.2548,91.8123,0,U,57417,999,15868,.40262E-4,.846E-5,0
